[{"OBJECT_NAME":"STARLINK-1458","OBJECT_ID":"2020-035U","EPOCH":"2026-03-09T08:30:04.028256","MEAN_MOTION":15.43164244,"ECCENTRICITY":0.00069021,"INCLINATION":53.0533,"RA_OF_ASC_NODE":57.0913,"ARG_OF_PERICENTER":77.6048,"MEAN_ANOMALY":282.5729,"EPHEMERIS_TYPE":0,"CLASSIFICATION_TYPE":"U","NORAD_CAT_ID":45675,"ELEMENT_SET_NO":999,"REV_AT_EPOCH":31880,"BSTAR":0.001001866,"MEAN_MOTION_DOT":0.00044975,"MEAN_MOTION_DDOT":0},{"OBJECT_NAME":"CHIPSAT","OBJECT_ID":"2003-002B","EPOCH":"2026-03-09T14:27:30.663072","MEAN_MOTION":15.44632189,"ECCENTRICITY":0.000777,"INCLINATION":94.0324,"RA_OF_ASC_NODE":287.2761,"ARG_OF_PERICENTER":153.1766,"MEAN_ANOMALY":206.9893,"EPHEMERIS_TYPE":0,"CLASSIFICATION_TYPE":"U","NORAD_CAT_ID":27643,"ELEMENT_SET_NO":999,"REV_AT_EPOCH":27180,"BSTAR":0.00041911,"MEAN_MOTION_DOT":0.00019516,"MEAN_MOTION_DDOT":0}]
